#dP2022 10  6  6  0  0.00000000      96 __u+U ITR00 EXT  IAC
## 2230 367200.00000000   900.00000000 59858 0.2500000000000
+  118   C06C07C08C09C10C11C12C13C14C16C19C20C21C22C23C24C25
+        C26C27C28C29C30C32C33C34C35C36C37C38C39C40C41C42C43
+        C44C45C46E01E02E03E04E05E07E08E09E10E11E12E13E14E15
+        E18E19E21E24E25E26E27E30E31E33E34E36G01G02G03G04G05
+        G06G07G08G09G10G11G12G13G14G15G16G17G18G19G20G21G22
+        G23G24G25G26G27G28G29G30G31G32J02J03J04R01R02R03R04
+        R05R07R08R09R11R12R13R14R15R17R18R19R20R21R24R25  0
++        11  8 10 11  9  8  8 10  9 11  9  9  8  9  9  7  9
++         9  9  8 10  9  8  9  8  9  9  9  8  9 10  9  8  9
++         8 10  8  8  8  8  7  8  8  8  8  8  7  9  8  8  8
++         8  7  9  8  8  7  8  9  8  8  8  8  8  8  8  8  8
++         8  8  8  8  8  7  7  8  7  8  8  8  8  8  8  9  7
++         7  8  7  8  8  8  8  8  9  8  8  9  9  8  7  8  8
++         8  9  9  9  9  8 10  7  8  9  9  8 10  8  8  8  0
%c M  cc GPS ccc cccc cccc cccc cccc ccccc ccccc ccccc ccccc
%c cc cc ccc ccc cccc cccc cccc cccc ccccc ccccc ccccc ccccc
%f  0.0000000  0.000000000  0.00000000000  0.000000000000000
%f  0.0000000  0.000000000  0.00000000000  0.000000000000000
%i    0    0    0    0      0      0      0      0         0
%i    0    0    0    0      0      0      0      0         0
/* IAC                                ULTRA-RAPID PREDICTION
/* S/V CLOCKS ARE ALIGNED TO GNSS TIME                      
/* G:C1WC2W R:C1PC2P E:C1XC5X C:C2IC6I J:C1CC2S             
/* PCV:IGS14_2218 OL/AL:FES2004  NONE     YN ORB:CoN CLK:CoN
*  2022 10 06 18  0  0.00000000
PC06  -2808.389418  36337.401841 -20996.733783    903.082784
PC07 -12199.476814  25609.793609  31216.238071   -240.164048
PC08 -19013.890413  35735.666586 -12152.593026    488.623791
PC09   3683.194803  39875.536900 -11977.439068   -842.431193
PC10  -3047.652964  27056.045028  32482.155531     87.343951
PC11  18286.590195  11217.637150 -17799.563161   -366.849066
PC12  13602.152381  24265.139327  -2340.763662   -492.197266
PC13 -11916.889048  35879.414044 -18852.384826     99.860178
PC14  27364.719695   3979.453834  -3944.883907    702.665662
PC16  -5470.689273  33721.241400 -24347.498661    131.794962
PC19 -27249.753957   2466.358212  -5437.344172   -816.400073
PC20 -23965.961396  -8820.986886  11226.039010    870.311433
PC21   5987.210550  15623.582705 -22330.438384   -547.465549
PC22 -14919.647192  12857.509092 -19771.629022   -865.899422
PC23  16103.681117 -22731.450410   1592.599264   -428.925052
PC24  12020.519530  11259.116090  22523.564765   -486.493002
PC25  20077.420360  -9812.492705  16694.625357      5.885316
PC26  -1284.976551  23230.204629  15425.635559    -17.733309
PC27  -8158.577799 -25978.541754  -6141.887441     31.887927
PC28   5718.842475 -19010.235936 -19604.285746     21.259426
PC29 -17117.975717    604.438315  22025.252616     23.243499
PC30 -18305.529377 -18248.881533  10532.327800      0.359581
PC32  -5968.009769 -15605.870990  22356.035929   -770.917004
PC33  27274.886205  -2572.119992   5339.277461   -844.998999
PC34  18570.833273  17350.717512 -11517.050444     10.840291
PC35  -6228.437954  18141.768823  20252.635098     29.756919
PC36 -20244.478239   8794.986324 -17053.355965   -557.807725
PC37   2878.745115 -23645.006614 -14500.251614   -423.557793
PC38 -22795.595706  35356.617336  -4051.904170     29.248172
PC39  -7612.327827  30392.397045 -28109.585878     -0.582005
PC40 -17851.755663  18744.283610  33235.506348     -5.526879
PC41  15424.461455 -12751.902511  19489.833477   -147.279602
PC42  23283.231048   9409.416242 -12151.815877   -425.724961
PC43  17492.809178    200.203764 -21745.564050     18.149131
PC44   8926.227987  25667.403797   6277.255575     73.107186
PC45 -15910.571874  22910.013867  -1228.176130     -6.561792
PC46 -13141.857647  -9452.989490 -22724.733472     -4.571991
PE01 -19126.434740  -6878.150634 -21512.263190   -541.798705
PE02  19252.259788   6760.963074  21441.723942    329.124603
PE03  25000.710338  15845.886788    613.189173   -607.088830
PE04 -23980.356142  -1119.871978 -17318.836006  -1130.949550
PE05  11328.235296  21568.276699 -16816.156918   -137.081445
PE07   8703.398309 -14665.778763  24192.306208   -711.131346
PE08  23906.222357   1100.393415  17420.402370   -610.932907
PE09  -8720.200749  14487.136743 -24299.525239   -683.912671
PE10 -13654.724500  17138.655135  19899.011427   -481.826905
PE11  -9060.676177  25539.886197  11895.710513   1909.387639
PE12 -15949.378032   6603.969925  24041.037969   -207.969407
PE13   9414.328928 -25041.379966 -12660.296277    430.661985
PE14 -15393.227125 -19768.420584  -5467.744043     20.178171
PE15  15883.346416  -6368.039478 -24147.491625    715.772436
PE18  26176.419930  15828.864539  -7260.442721   -892.355804
PE19 -23923.889750 -17330.636670   1905.388506  -4337.163798
PE21  -1140.875243 -17596.533866 -23767.301466   -761.898915
PE24 -19672.224481  18765.048288  11730.081845   -876.616263
PE25    809.203571  17718.992649  23710.044246   -589.509173
PE26  -3048.414844 -28599.388682   6967.883648  -1696.522759
PE27  18798.317274 -19066.727050 -12598.699057   -409.085711
PE30  27528.081898  -8605.193679   6622.754385   -894.921203
PE31 -27478.546064   9322.645723  -5847.335648   -505.140246
PE33 -12944.419377 -15937.191607  21322.091922   -454.438223
PE34  13041.583172  15754.871510 -21411.731461     -8.126903
PE36   2510.529919  28849.839681  -6137.883465   -442.009163
PG01 -13169.717394  16212.298691  15889.580203    271.845475
PG02  13413.329512 -13232.604339 -18172.945422   -643.409842
PG03 -23351.370806  12017.895472  -3685.862394   -361.322694
PG04 -14521.993572   7007.724959 -21121.295084   -107.763963
PG05  24933.535291  -5172.498664  -7941.356786    -99.384016
PG06   7578.940018  19816.506972 -15867.384521    483.405009
PG07  -5642.326890  25503.867999  -2570.210207    301.283413
PG08 -21045.659710  -1589.841113  16299.551293    -87.681794
PG09  -3337.190359  16064.294812 -20958.222277   -286.769326
PG10  -3959.122333 -14505.480855  22030.555691     -6.368625
PG11  13129.711387   9245.252871 -21160.311050    -22.977771
PG12  24129.163138 -10406.638511  -3725.619758   -289.141150
PG13  21384.358339  10868.629375  11433.174564    401.120748
PG14   1336.220667  15720.968473  21362.019817    -97.619946
PG15  21230.412400   -975.535367  15664.646617    -23.093798
PG16 -23451.152618  -2314.060629 -12972.442781   -525.776022
PG17   9238.695808  20884.264884  13947.051843    666.192102
PG18   5388.072701 -25877.935080  -1657.744414     23.933769
PG19  17148.536311  20113.144968   3532.781312    220.282740
PG20  18516.151770   4400.790580 -18422.474530    480.541172
PG21 -15212.193243   6734.701892  21156.301455    158.435490
PG22 -18536.278433 -19099.004204   1913.432312    340.867537
PG23   7769.427352 -17240.949412  18584.772599     -0.801823
PG24  14193.925291 -12506.592026  18151.754001    109.768075
PG25  15926.197775 -16656.597382 -13247.875329    379.638925
PG26 -16632.903197  -7906.514980 -19332.348153    231.452405
PG27 -22856.211236 -12053.908822   6767.677938    202.178335
PG28  10688.123806  12281.874753  21445.057830    332.100554
PG29   5474.704053 -14604.293564 -21528.811459   -557.530819
PG30   2066.050327  25101.751639   8105.572968   -537.223166
PG31  -8746.161307 -18710.566444 -16578.813558   -195.875466
PG32 -13148.624572 -20285.513914  11372.869711   -255.145193
PJ02 -30592.570889  28091.918873  12491.019866     -6.610467
PJ03 -25936.359007  24939.534584  27053.852746     -2.517990
PJ04 -31930.950848  21122.129519 -12534.948848    111.660222
PR01 -23093.695853  -8289.775664   6955.368467     15.849543
PR02 -22521.084006    290.367221 -12006.231694    -22.886497
PR03  -8538.141594   8845.261356 -22321.881766     65.002130
PR04   9935.545594  12085.343169 -20120.334138    160.212935
PR05  22879.828186   8913.739003  -6849.852352    100.800505
PR07   7628.338857  -9171.956675  22570.972231     42.124685
PR08 -10113.015329 -12175.092233  20064.739130    -67.530700
PR09  19013.928191 -12719.674493  11385.201926     80.601948
PR11   2737.423052 -16516.982112 -19236.797586     25.317522
PR12 -12219.414636  -2485.711377 -22225.226650     21.786901
PR13 -18817.384772  11567.082049 -12769.165929    -27.545701
PR14 -14634.101737  20048.132195   5858.536829     24.220322
PR15  -1966.902511  16018.957418  19775.404841     93.350029
PR17  -2112.884081  19374.966559  16494.853678    566.843754
PR18   6453.172380  24628.558506   1190.467795     45.848071
PR19  11017.349760  18407.486126 -13810.584168   -206.300089
PR20  10182.675672  -1844.586518 -23305.266392    -79.716877
PR21   1335.276592 -20321.834866 -15334.415465   -339.464139
PR24 -10397.332964   2983.525631  23118.771329    118.783066
PR25  -5852.324867 -24828.714411   -371.025597     13.992658
EOF
